{"type": "FeatureCollection", "features": [ {"type": "Feature", "properties": {"norad_id": 38953, "name": "BEIDOU-2 G6 (C02)", "group": "beidou", "lat": -3.7525777566612972, "lon": -34.7890367519307, "alt_km": 35761.97848683586, "timestamp": "2025-12-25T09:48:52.555637+00:00", "meta": {"OBJECT_NAME": "BEIDOU-2 G6 (C02)", "OBJECT_ID": "2012-059A", "EPOCH": "2025-12-25T01:00:51.717600", "MEAN_MOTION": 1.00274262, "ECCENTRICITY": 0.0007997, "INCLINATION": 3.9787, "RA_OF_ASC_NODE": 75.3898, "ARG_OF_PERICENTER": 294.4199, "MEAN_ANOMALY": 183.1448, "EPHEMERIS_TYPE": 0, "CLASSIFICATION_TYPE": "U", "NORAD_CAT_ID": 38953, "ELEMENT_SET_NO": 999, "REV_AT_EPOCH": 4816, "BSTAR": 0, "MEAN_MOTION_DOT": -1.55e-06, "MEAN_MOTION_DDOT": 0}, "tle": {"line1": "1 38953U 12059A   25359.04226525 -.00000155  00000+0  00000+0 0  9995", "line2": "2 38953   3.9787  75.3898 0007997 294.4199 183.1448  1.00274262 48166"}}, "geometry": {"type": "Point", "coordinates": [-34.7890367519307, -3.7525777566612972]}}, {"type": "Feature", "properties": {"norad_id": 40549, "name": "BEIDOU-3S IGSO-1S (C31)", "group": "beidou", "lat": 28.236515359714286, "lon": -35.22481077141407, "alt_km": 35917.08760257722, "timestamp": "2025-12-25T09:48:52.555649+00:00", "meta": {"OBJECT_NAME": "BEIDOU-3S IGSO-1S (C31)", "OBJECT_ID": "2015-019A", "EPOCH": "2025-12-18T19:55:38.829792", "MEAN_MOTION": 1.00292047, "ECCENTRICITY": 0.0036331, "INCLINATION": 49.5404, "RA_OF_ASC_NODE": 297.6395, "ARG_OF_PERICENTER": 194.0028, "MEAN_ANOMALY": 349.3621, "EPHEMERIS_TYPE": 0, "CLASSIFICATION_TYPE": "U", "NORAD_CAT_ID": 40549, "ELEMENT_SET_NO": 999, "REV_AT_EPOCH": 3926, "BSTAR": 0, "MEAN_MOTION_DOT": -1.83e-06, "MEAN_MOTION_DDOT": 0}, "tle": {"line1": "1 40549U 15019A   25352.83031053 -.00000183  00000+0  00000+0 0  9999", "line2": "2 40549  49.5404 297.6395 0036331 194.0028 349.3621  1.00292047 39264"}}, "geometry": {"type": "Point", "coordinates": [-35.22481077141407, 28.236515359714286]}}, {"type": "Feature", "properties": {"norad_id": 40748, "name": "BEIDOU-3S M2S (C58)", "group": "beidou", "lat": 30.734026010991442, "lon": -27.42284625548728, "alt_km": 21544.36188764598, "timestamp": "2025-12-25T09:48:52.555661+00:00", "meta": {"OBJECT_NAME": "BEIDOU-3S M2S (C58)", "OBJECT_ID": "2015-037A", "EPOCH": "2025-12-24T19:32:44.901312", "MEAN_MOTION": 1.86229543, "ECCENTRICITY": 0.00118109, "INCLINATION": 55.028, "RA_OF_ASC_NODE": 308.0499, "ARG_OF_PERICENTER": 271.2412, "MEAN_ANOMALY": 88.6304, "EPHEMERIS_TYPE": 0, "CLASSIFICATION_TYPE": "U", "NORAD_CAT_ID": 40748, "ELEMENT_SET_NO": 999, "REV_AT_EPOCH": 7087, "BSTAR": 0, "MEAN_MOTION_DOT": -5.3e-07, "MEAN_MOTION_DDOT": 0}, "tle": {"line1": "1 40748U 15037A   25358.81440858 -.00000053  00000+0  00000+0 0  9997", "line2": "2 40748  55.0280 308.0499 0011810 271.2412  88.6304  1.86229543 70879"}}, "geometry": {"type": "Point", "coordinates": [-27.42284625548728, 30.734026010991442]}}, {"type": "Feature", "properties": {"norad_id": 40749, "name": "BEIDOU-3S M1S (C57)", "group": "beidou", "lat": -48.16487299367106, "lon": 179.3686567779938, "alt_km": 21535.81592407101, "timestamp": "2025-12-25T09:48:52.555672+00:00", "meta": {"OBJECT_NAME": "BEIDOU-3S M1S (C57)", "OBJECT_ID": "2015-037B", "EPOCH": "2025-12-25T01:01:53.071104", "MEAN_MOTION": 1.86253893, "ECCENTRICITY": 0.000369, "INCLINATION": 55.0241, "RA_OF_ASC_NODE": 308.031, "ARG_OF_PERICENTER": 2.2616, "MEAN_ANOMALY": 357.7473, "EPHEMERIS_TYPE": 0, "CLASSIFICATION_TYPE": "U", "NORAD_CAT_ID": 40749, "ELEMENT_SET_NO": 999, "REV_AT_EPOCH": 7088, "BSTAR": 0, "MEAN_MOTION_DOT": -5.3e-07, "MEAN_MOTION_DDOT": 0}, "tle": {"line1": "1 40749U 15037B   25359.04297536 -.00000053  00000+0  00000+0 0  9997", "line2": "2 40749  55.0241 308.0310 0003690   2.2616 357.7473  1.86253893 70887"}}, "geometry": {"type": "Point", "coordinates": [179.3686567779938, -48.16487299367106]}}, {"type": "Feature", "properties": {"norad_id": 40938, "name": "BEIDOU-3S IGSO-2S (C56)", "group": "beidou", "lat": 47.44226577715065, "lon": -30.760269324345927, "alt_km": 35881.19731175907, "timestamp": "2025-12-25T09:48:52.555683+00:00", "meta": {"OBJECT_NAME": "BEIDOU-3S IGSO-2S (C56)", "OBJECT_ID": "2015-053A", "EPOCH": "2025-12-24T16:58:26.308416", "MEAN_MOTION": 1.00267681, "ECCENTRICITY": 0.00606582, "INCLINATION": 49.4921, "RA_OF_ASC_NODE": 260.8653, "ARG_OF_PERICENTER": 188.5708, "MEAN_ANOMALY": 354.4321, "EPHEMERIS_TYPE": 0, "CLASSIFICATION_TYPE": "U", "NORAD_CAT_ID": 40938, "ELEMENT_SET_NO": 999, "REV_AT_EPOCH": 3760, "BSTAR": 0, "MEAN_MOTION_DOT": -1.14e-06, "MEAN_MOTION_DDOT": 0}, "tle": {"line1": "1 40938U 15053A   25358.70724894 -.00000114  00000+0  00000+0 0  9997", "line2": "2 40938  49.4921 260.8653 0060658 188.5708 354.4321  1.00267681 37606"}}, "geometry": {"type": "Point", "coordinates": [-30.760269324345927, 47.44226577715065]}}, {"type": "Feature", "properties": {"norad_id": 41434, "name": "BEIDOU-2 IGSO-6 (C13)", "group": "beidou", "lat": -51.19038510286698, "lon": -6.133490114491243, "alt_km": 35678.01257875214, "timestamp": "2025-12-25T09:48:52.555695+00:00", "meta": {"OBJECT_NAME": "BEIDOU-2 IGSO-6 (C13)", "OBJECT_ID": "2016-021A", "EPOCH": "2025-12-24T14:08:03.685920", "MEAN_MOTION": 1.00290884, "ECCENTRICITY": 0.00608322, "INCLINATION": 59.9811, "RA_OF_ASC_NODE": 39.7798, "ARG_OF_PERICENTER": 230.476, "MEAN_ANOMALY": 128.7548, "EPHEMERIS_TYPE": 0, "CLASSIFICATION_TYPE": "U", "NORAD_CAT_ID": 41434, "ELEMENT_SET_NO": 999, "REV_AT_EPOCH": 3572, "BSTAR": 0, "MEAN_MOTION_DOT": -1.33e-06, "MEAN_MOTION_DDOT": 0}, "tle": {"line1": "1 41434U 16021A   25358.58893155 -.00000133  00000+0  00000+0 0  9999", "line2": "2 41434  59.9811  39.7798 0060832 230.4760 128.7548  1.00290884 35729"}}, "geometry": {"type": "Point", "coordinates": [-6.133490114491243, -51.19038510286698]}}, {"type": "Feature", "properties": {"norad_id": 41586, "name": "BEIDOU-2 G7 (C03)", "group": "beidou", "lat": -1.7421846951211915, "lon": -8.243516197520854, "alt_km": 35782.37104388668, "timestamp": "2025-12-25T09:48:52.555707+00:00", "meta": {"OBJECT_NAME": "BEIDOU-2 G7 (C03)", "OBJECT_ID": "2016-037A", "EPOCH": "2025-12-25T01:25:38.455104", "MEAN_MOTION": 1.00268771, "ECCENTRICITY": 0.0005203, "INCLINATION": 1.7852, "RA_OF_ASC_NODE": 67.8927, "ARG_OF_PERICENTER": 0.9679, "MEAN_ANOMALY": 156.8036, "EPHEMERIS_TYPE": 0, "CLASSIFICATION_TYPE": "U", "NORAD_CAT_ID": 41586, "ELEMENT_SET_NO": 999, "REV_AT_EPOCH": 514, "BSTAR": 0, "MEAN_MOTION_DOT": -3.32e-06, "MEAN_MOTION_DDOT": 0}, "tle": {"line1": "1 41586U 16037A   25359.05947286 -.00000332  00000+0  00000+0 0  9993", "line2": "2 41586   1.7852  67.8927 0005203   0.9679 156.8036  1.00268771  5140"}}, "geometry": {"type": "Point", "coordinates": [-8.243516197520854, -1.7421846951211915]}}, {"type": "Feature", "properties": {"norad_id": 43001, "name": "BEIDOU-3 M1 (C19)", "group": "beidou", "lat": 10.772495660289604, "lon": -118.38736388319947, "alt_km": 21546.625184993518, "timestamp": "2025-12-25T09:48:52.555718+00:00", "meta": {"OBJECT_NAME": "BEIDOU-3 M1 (C19)", "OBJECT_ID": "2017-069A", "EPOCH": "2025-12-24T02:03:22.370112", "MEAN_MOTION": 1.86231021, "ECCENTRICITY": 0.00099255, "INCLINATION": 56.5356, "RA_OF_ASC_NODE": 68.8594, "ARG_OF_PERICENTER": 302.4524, "MEAN_ANOMALY": 57.5061, "EPHEMERIS_TYPE": 0, "CLASSIFICATION_TYPE": "U", "NORAD_CAT_ID": 43001, "ELEMENT_SET_NO": 999, "REV_AT_EPOCH": 5534, "BSTAR": 0, "MEAN_MOTION_DOT": -2.4e-07, "MEAN_MOTION_DDOT": 0}, "tle": {"line1": "1 43001U 17069A   25358.08567558 -.00000024  00000+0  00000+0 0  9993", "line2": "2 43001  56.5356  68.8594 0009925 302.4524  57.5061  1.86231021 55340"}}, "geometry": {"type": "Point", "coordinates": [-118.38736388319947, 10.772495660289604]}}, {"type": "Feature", "properties": {"norad_id": 43002, "name": "BEIDOU-3 M2 (C20)", "group": "beidou", "lat": -23.409653294602055, "lon": -94.51330013999025, "alt_km": 21540.420831149953, "timestamp": "2025-12-25T09:48:52.555730+00:00", "meta": {"OBJECT_NAME": "BEIDOU-3 M2 (C20)", "OBJECT_ID": "2017-069B", "EPOCH": "2025-12-25T02:21:04.022208", "MEAN_MOTION": 1.86231058, "ECCENTRICITY": 0.0006739, "INCLINATION": 56.5361, "RA_OF_ASC_NODE": 68.8616, "ARG_OF_PERICENTER": 327.75, "MEAN_ANOMALY": 32.2629, "EPHEMERIS_TYPE": 0, "CLASSIFICATION_TYPE": "U", "NORAD_CAT_ID": 43002, "ELEMENT_SET_NO": 999, "REV_AT_EPOCH": 5535, "BSTAR": 0, "MEAN_MOTION_DOT": -2.5e-07, "MEAN_MOTION_DDOT": 0}, "tle": {"line1": "1 43002U 17069B   25359.09796322 -.00000025  00000+0  00000+0 0  9990", "line2": "2 43002  56.5361  68.8616 0006739 327.7500  32.2629  1.86231058 55357"}}, "geometry": {"type": "Point", "coordinates": [-94.51330013999025, -23.409653294602055]}}, {"type": "Feature", "properties": {"norad_id": 43107, "name": "BEIDOU-3 M7 (C27)", "group": "beidou", "lat": 16.89522342576321, "lon": -39.12819831311353, "alt_km": 21520.15151218651, "timestamp": "2025-12-25T09:48:52.555741+00:00", "meta": {"OBJECT_NAME": "BEIDOU-3 M7 (C27)", "OBJECT_ID": "2018-003A", "EPOCH": "2025-12-23T05:31:08.538816", "MEAN_MOTION": 1.86232625, "ECCENTRICITY": 0.0002961, "INCLINATION": 54.4874, "RA_OF_ASC_NODE": 308.4506, "ARG_OF_PERICENTER": 66.5422, "MEAN_ANOMALY": 293.4915, "EPHEMERIS_TYPE": 0, "CLASSIFICATION_TYPE": "U", "NORAD_CAT_ID": 43107, "ELEMENT_SET_NO": 999, "REV_AT_EPOCH": 5407, "BSTAR": 0, "MEAN_MOTION_DOT": -5.5e-07, "MEAN_MOTION_DDOT": 0}, "tle": {"line1": "1 43107U 18003A   25357.22995994 -.00000055  00000+0  00000+0 0  9997", "line2": "2 43107  54.4874 308.4506 0002961  66.5422 293.4915  1.86232625 54072"}}, "geometry": {"type": "Point", "coordinates": [-39.12819831311353, 16.89522342576321]}}]}